{
    "links": {
        "self": "http://www.neowsapp.com/rest/v1/neo/3843630?api_key=iIulBulltgU6a56xZRHN4H3l9WmuAYTsLGpBGhQ2"
    },
    "id": "3843630",
    "neo_reference_id": "3843630",
    "name": "(2019 QR3)",
    "designation": "2019 QR3",
    "nasa_jpl_url": "http://ssd.jpl.nasa.gov/sbdb.cgi?sstr=3843630",
    "absolute_magnitude_h": 27.2,
    "estimated_diameter": {
        "kilometers": {
            "estimated_diameter_min": 0.0096506147,
            "estimated_diameter_max": 0.0215794305
        },
        "meters": {
            "estimated_diameter_min": 9.6506146958,
            "estimated_diameter_max": 21.5794304844
        },
        "miles": {
            "estimated_diameter_min": 0.0059966121,
            "estimated_diameter_max": 0.0134088323
        },
        "feet": {
            "estimated_diameter_min": 31.6621227185,
            "estimated_diameter_max": 70.7986587106
        }
    },
    "is_potentially_hazardous_asteroid": false,
    "close_approach_data": [
        {
            "close_approach_date": "2017-12-26",
            "close_approach_date_full": "2017-Dec-26 01:08",
            "epoch_date_close_approach": 1514250480000,
            "relative_velocity": {
                "kilometers_per_second": "12.0045909504",
                "kilometers_per_hour": "43216.527421471",
                "miles_per_hour": "26853.069496969"
            },
            "miss_distance": {
                "astronomical": "0.1601950212",
                "lunar": "62.3158632468",
                "kilometers": "23964833.956124844",
                "miles": "14891057.3128330872"
            },
            "orbiting_body": "Earth"
        },
        {
            "close_approach_date": "2019-08-30",
            "close_approach_date_full": "2019-Aug-30 07:47",
            "epoch_date_close_approach": 1567151220000,
            "relative_velocity": {
                "kilometers_per_second": "11.3548034334",
                "kilometers_per_hour": "40877.2923601921",
                "miles_per_hour": "25399.5598001427"
            },
            "miss_distance": {
                "astronomical": "0.0145314409",
                "lunar": "5.6527305101",
                "kilometers": "2173872.606670883",
                "miles": "1350781.8012008654"
            },
            "orbiting_body": "Earth"
        }
    ],
    "orbital_data": {
        "orbit_id": "3",
        "orbit_determination_date": "2019-08-30 06:13:59",
        "first_observation_date": "2019-08-27",
        "last_observation_date": "2019-08-29",
        "data_arc_in_days": 2,
        "observations_used": 19,
        "orbit_uncertainty": "8",
        "minimum_orbit_intersection": ".00158482",
        "jupiter_tisserand_invariant": "4.344",
        "epoch_osculation": "2458724.5",
        "eccentricity": ".4327676873875498",
        "semi_major_axis": "1.541688375976171",
        "inclination": "9.095153786114222",
        "ascending_node_longitude": "158.3737351784393",
        "orbital_period": "699.1869660311196",
        "perihelion_distance": ".874495462832696",
        "perihelion_argument": "235.4793792960977",
        "aphelion_distance": "2.208881289119645",
        "perihelion_time": "2458769.325063565869",
        "mean_anomaly": "336.9203036273497",
        "mean_motion": ".5148837399580143",
        "equinox": "J2000",
        "orbit_class": {
            "orbit_class_type": "APO",
            "orbit_class_description": "Near-Earth asteroid orbits which cross the Earth’s orbit similar to that of 1862 Apollo",
            "orbit_class_range": "a (semi-major axis) > 1.0 AU; q (perihelion) < 1.017 AU"
        }
    },
    "is_sentry_object": false
}